{
    "links": {
        "self": "http://www.neowsapp.com/rest/v1/neo/3803883?api_key=iIulBulltgU6a56xZRHN4H3l9WmuAYTsLGpBGhQ2"
    },
    "id": "3803883",
    "neo_reference_id": "3803883",
    "name": "(2018 GH5)",
    "designation": "2018 GH5",
    "nasa_jpl_url": "http://ssd.jpl.nasa.gov/sbdb.cgi?sstr=3803883",
    "absolute_magnitude_h": 25.2,
    "estimated_diameter": {
        "kilometers": {
            "estimated_diameter_min": 0.0242412481,
            "estimated_diameter_max": 0.0542050786
        },
        "meters": {
            "estimated_diameter_min": 24.2412481101,
            "estimated_diameter_max": 54.2050786336
        },
        "miles": {
            "estimated_diameter_min": 0.0150628086,
            "estimated_diameter_max": 0.0336814639
        },
        "feet": {
            "estimated_diameter_min": 79.5316564495,
            "estimated_diameter_max": 177.8381901842
        }
    },
    "is_potentially_hazardous_asteroid": false,
    "close_approach_data": [
        {
            "close_approach_date": "2018-04-27",
            "close_approach_date_full": "2018-Apr-27 05:09",
            "epoch_date_close_approach": 1524805740000,
            "relative_velocity": {
                "kilometers_per_second": "12.6836757495",
                "kilometers_per_hour": "45661.2326982374",
                "miles_per_hour": "28372.1142840798"
            },
            "miss_distance": {
                "astronomical": "0.031143712",
                "lunar": "12.114903968",
                "kilometers": "4659032.97909344",
                "miles": "2894988.850791872"
            },
            "orbiting_body": "Earth"
        }
    ],
    "orbital_data": {
        "orbit_id": "5",
        "orbit_determination_date": "2018-05-06 06:40:36",
        "first_observation_date": "2018-04-13",
        "last_observation_date": "2018-04-24",
        "data_arc_in_days": 11,
        "observations_used": 42,
        "orbit_uncertainty": "8",
        "minimum_orbit_intersection": ".0195373",
        "jupiter_tisserand_invariant": "3.749",
        "epoch_osculation": "2458223.5",
        "eccentricity": ".5515543862433033",
        "semi_major_axis": "1.894527045771811",
        "inclination": "5.07132028557789",
        "ascending_node_longitude": "21.83536807626466",
        "orbital_period": "952.4663497356859",
        "perihelion_distance": ".8495923438198011",
        "perihelion_argument": "248.7607128173448",
        "aphelion_distance": "2.939461747723821",
        "perihelion_time": "2458275.217534536125",
        "mean_anomaly": "340.45252471316",
        "mean_motion": ".3779661088288335",
        "equinox": "J2000",
        "orbit_class": {
            "orbit_class_type": "APO",
            "orbit_class_description": "Near-Earth asteroid orbits which cross the Earth’s orbit similar to that of 1862 Apollo",
            "orbit_class_range": "a (semi-major axis) > 1.0 AU; q (perihelion) < 1.017 AU"
        }
    },
    "is_sentry_object": false
}